     2.100          NAVIGATION                              RINEX VERSION / TYPE
fic2rin                                 09/09/2009 01:27:49 PGM / RUN BY / DATE
                                                            END OF HEADER
12 09  9  9  0  0  0.0 -.221830327064D-03  .568434188608D-11  .000000000000D+00
     .710000000000D+02  .800000000000D+01  .466555148180D-08  .224624777890D+01
     .152736902237D-06  .310827605426D-02  .535510480404D-05  .515357312012D+04
     .259200000000D+06  .316649675369D-07  .191890294441D+01  .577419996262D-07
     .967709205887D+00  .279312500000D+03 -.592446853972D+00 -.812819571483D-08
     .301441127661D-09  .100000000000D+01  .154800000000D+04  .000000000000D+00
     .240000000000D+01  .000000000000D+00 -.116415321827D-07  .710000000000D+02
     .252006000000D+06  .400000000000D+01
13 09  9  9  0  0  0.0  .304345972836D-03  .454747350886D-12  .000000000000D+00
     .330000000000D+02 -.821562500000D+02  .368622497464D-08 -.176201910196D+01
    -.433251261711D-05  .401834037621D-02  .657327473164D-05  .515365871239D+04
     .259200000000D+06  .726431608200D-07 -.120863577996D+00  .149011611938D-06
     .994736156582D+00  .271531250000D+03  .165761376636D+01 -.780532512312D-08
    -.435375277985D-09  .100000000000D+01  .154800000000D+04  .000000000000D+00
     .240000000000D+01  .000000000000D+00 -.111758708954D-07  .330000000000D+02
     .252006000000D+06  .400000000000D+01
14 09  9  9  0  0  0.0 -.535906292498D-04  .522959453519D-11  .000000000000D+00
     .104000000000D+03 -.845937500000D+02  .379872966091D-08 -.179122625848D+01
    -.438466668129D-05  .489545485470D-02  .688619911671D-05  .515364402962D+04
     .259200000000D+06  .968575477600D-07 -.141008515856D+00 -.577419996262D-07
     .988162971606D+00  .264062500000D+03 -.215892441838D+01 -.776746640330D-08
    -.403588239642D-09  .100000000000D+01  .154800000000D+04  .000000000000D+00
     .240000000000D+01  .000000000000D+00 -.884756445885D-08  .104000000000D+03
     .252006000000D+06  .400000000000D+01
15 09  9  9  0  0  0.0 -.317613594234D-03 -.125055521494D-11  .000000000000D+00
     .400000000000D+02 -.711250000000D+02  .450911639423D-08 -.157419162653D+01
    -.363029539585D-05  .165841914713D-02  .601820647717D-05  .515365963173D+04
     .259200000000D+06 -.242143869400D-07 -.196737456985D+00  .223517417908D-07
     .956025888601D+00  .261093750000D+03 -.517217189978D+00 -.820998483597D-08
    -.315013121561D-09  .100000000000D+01  .154800000000D+04  .000000000000D+00
     .240000000000D+01  .000000000000D+00 -.977888703346D-08  .400000000000D+02
     .252006000000D+06  .400000000000D+01
16 09  9  9  0  0  0.0  .146874226630D-04 -.386535248253D-11  .000000000000D+00
     .850000000000D+02 -.190625000000D+01  .466555148180D-08 -.163940385804D+00
    -.521540641785D-07  .529842823744D-02  .516138970852D-05  .515360701561D+04
     .259200000000D+06  .782310962677D-07  .193600420075D+01 -.577419996262D-07
     .969100972020D+00  .280375000000D+03 -.278750536062D+00 -.822927135361D-08
     .347157317639D-09  .100000000000D+01  .154800000000D+04  .000000000000D+00
     .240000000000D+01  .000000000000D+00 -.977888703346D-08  .850000000000D+02
     .252006000000D+06  .400000000000D+01
17 09  9  9  0  0  0.0  .834469683468D-04  .295585778076D-11  .000000000000D+00
     .940000000000D+02 -.400312500000D+02  .476662712058D-08 -.129278904967D+01
    -.202842056751D-05  .465099676512D-02  .856071710587D-05  .515372888756D+04
     .259200000000D+06  .670552253723D-07  .297864964437D+01 -.298023223877D-07
     .960245918645D+00  .212875000000D+03 -.264143274463D+01 -.804426364730D-08
    -.280368821344D-09  .100000000000D+01  .154800000000D+04  .000000000000D+00
     .240000000000D+01  .000000000000D+00 -.102445483208D-07  .940000000000D+02
     .252006000000D+06  .400000000000D+01
18 09  9  9  0  0  0.0  .113709829748D-04  .295585778076D-11  .000000000000D+00
     .930000000000D+02  .471875000000D+02  .543058334845D-08  .400232779187D-01
     .254623591900D-05  .109069538303D-01  .228732824326D-05  .515362202072D+04
     .259200000000D+06  .651925802231D-07 -.120132867239D+01  .152736902237D-06
     .940542305134D+00  .323593750000D+03 -.238205448430D+01 -.888251284946D-08
    -.914323799542D-10  .100000000000D+01  .154800000000D+04  .000000000000D+00
     .240000000000D+01  .000000000000D+00 -.107102096081D-07  .930000000000D+02
     .252006000000D+06  .400000000000D+01
19 09  9  9  0  0  0.0  .116387382150D-04 -.170530256582D-11  .000000000000D+00
     .480000000000D+02 -.340625000000D+02  .475662670402D-08 -.193905123089D+01
    -.192224979401D-05  .582457857672D-02  .964850187302D-05  .515364931870D+04
     .259200000000D+06 -.689178705215D-07  .303437985385D+01 -.122934579849D-06
     .957957407137D+00  .196281250000D+03 -.264634008577D+00 -.802426281418D-08
    -.315370279295D-09  .100000000000D+01  .154800000000D+04  .000000000000D+00
     .240000000000D+01  .000000000000D+00 -.149011611938D-07  .480000000000D+02
     .252006000000D+06  .400000000000D+01
20 09  9  9  0  0  0.0  .727474689484D-04 -.909494701773D-12  .000000000000D+00
     .490000000000D+02  .686875000000D+02  .534343686131D-08  .218187234386D+00
     .356510281563D-05  .383244501427D-02  .299885869026D-05  .515377850533D+04
     .259200000000D+06 -.149011611938D-07 -.125523488342D+01 -.372529029846D-08
     .940237308658D+00  .308781250000D+03  .132907690232D+01 -.880036657059D-08
     .160720980388D-10  .100000000000D+01  .154800000000D+04  .000000000000D+00
     .240000000000D+01  .000000000000D+00 -.745058059692D-08  .490000000000D+02
     .252006000000D+06  .400000000000D+01
21 09  9  9  0  0  0.0 -.803638249636D-05 -.227373675443D-11  .000000000000D+00
     .850000000000D+02  .818437500000D+02  .520735976458D-08  .128082817001D+01
     .451318919659D-05  .155475391075D-01  .102203339338D-04  .515376305008D+04
     .259200000000D+06 -.856816768646D-07 -.225984186908D+01  .234693288803D-06
     .933653466323D+00  .171250000000D+03 -.256082618668D+01 -.846749556232D-08
    -.131076888450D-09  .100000000000D+01  .154800000000D+04  .000000000000D+00
     .240000000000D+01  .000000000000D+00 -.121071934700D-07  .850000000000D+02
     .252006000000D+06  .400000000000D+01
22 09  9  9  0  0  0.0  .191411934793D-03 -.795807864051D-12  .000000000000D+00
     .590000000000D+02  .510625000000D+02  .540129641425D-08 -.981152618431D+00
     .255554914474D-05  .533281371463D-02  .218302011490D-05  .515365891266D+04
     .259200000000D+06 -.931322574615D-08 -.119585826432D+01  .763684511185D-07
     .938214375297D+00  .325093750000D+03 -.189343514401D+01 -.878893752310D-08
    -.878608026122D-10  .100000000000D+01  .154800000000D+04  .000000000000D+00
     .240000000000D+01  .000000000000D+00 -.176951289177D-07  .590000000000D+02
     .252006000000D+06  .400000000000D+01
23 09  9  9  0  0  0.0  .388762447983D-03 -.454747350886D-12  .000000000000D+00
     .490000000000D+02 -.861875000000D+02  .426410618857D-08 -.244425440364D+01
    -.448338687420D-05  .646013207734D-02  .620633363724D-05  .515357733345D+04
     .259200000000D+06 -.968575477600D-07 -.175330409958D+00  .242143869400D-07
     .970084522566D+00  .264937500000D+03  .296636542471D+01 -.807855078978D-08
    -.380015829185D-09  .100000000000D+01  .154800000000D+04  .000000000000D+00
     .240000000000D+01  .000000000000D+00 -.200234353542D-07  .490000000000D+02
     .252006000000D+06  .400000000000D+01
24 09  9  9  0  0  0.0  .219087582082D-03  .306954461848D-11  .000000000000D+00
     .188000000000D+03  .761250000000D+02  .478484216502D-08 -.612817085606D-01
     .399351119995D-05  .649263430387D-02  .966526567936D-05  .515367448425D+04
     .259200000000D+06  .745058059692D-08 -.222592569337D+01 -.577419996262D-07
     .950253921913D+00  .189437500000D+03 -.629377274375D+00 -.819605568433D-08
     .982183769039D-10  .100000000000D+01  .154800000000D+04  .000000000000D+00
     .340000000000D+01  .000000000000D+00 -.139698386192D-08  .188000000000D+03
     .252006000000D+06  .400000000000D+01
25 09  9  9  0  0  0.0  .586841255426D-03  .151203494170D-10  .000000000000D+00
     .730000000000D+02 -.415625000000D+02  .397909431668D-08  .470562677030D+00
    -.216625630856D-05  .112264817581D-01  .106729567051D-04  .515365084839D+04
     .259200000000D+06 -.614672899246D-07  .771628840501D+00 -.149011611938D-06
     .970897548066D+00  .181906250000D+03 -.121189850275D+01 -.796890336538D-08
     .234652631367D-09  .100000000000D+01  .154800000000D+04  .000000000000D+00
     .340000000000D+01  .630000000000D+02 -.745058059692D-08  .730000000000D+02
     .252006000000D+06  .400000000000D+01
26 09  9  9  0  0  0.0  .632279552519D-04 -.909494701773D-12  .000000000000D+00
     .730000000000D+02 -.865312500000D+02  .373801284610D-08  .165240793434D+01
    -.482052564621D-05  .197038399056D-01  .760890543461D-05  .515360804176D+04
     .259200000000D+06 -.389292836189D-06 -.123426042859D+00 -.234693288803D-06
     .992541467862D+00  .259312500000D+03  .102513798468D+01 -.787211361942D-08
    -.461447792581D-09  .100000000000D+01  .154800000000D+04  .000000000000D+00
     .240000000000D+01  .000000000000D+00 -.605359673500D-08  .730000000000D+02
     .252006000000D+06  .400000000000D+01
27 09  9  9  0  0  0.0  .811517238617D-04  .318323145621D-11  .000000000000D+00
     .117000000000D+03 -.925000000000D+01  .381587323215D-08 -.168011452751D+01
    -.102445483208D-06  .213259164011D-01  .101029872894D-04  .515374704742D+04
     .259200000000D+06  .165775418282D-06  .808366765755D+00  .523403286934D-06
     .975639930565D+00  .189781250000D+03 -.154899227160D+01 -.766639076452D-08
     .292869342041D-09  .100000000000D+01  .154800000000D+04  .000000000000D+00
     .340000000000D+01  .000000000000D+00 -.419095158577D-08  .117000000000D+03
     .252006000000D+06  .400000000000D+01
